{"type": "FeatureCollection", "features": [ {"type": "Feature", "properties": {"norad_id": 30846, "name": "FENGYUN 1C DEB", "group": "fengyun-1c-debris", "lat": -60.09049810600296, "lon": -24.92377192085338, "alt_km": 743.0059156922862, "timestamp": "2025-12-23T11:34:48.442322+00:00", "meta": {"OBJECT_NAME": "FENGYUN 1C DEB", "OBJECT_ID": "1999-025AWG", "EPOCH": "2025-12-22T11:23:43.135584", "MEAN_MOTION": 14.4158833, "ECCENTRICITY": 0.00539014, "INCLINATION": 99.3213, "RA_OF_ASC_NODE": 170.5675, "ARG_OF_PERICENTER": 307.8249, "MEAN_ANOMALY": 107.3804, "EPHEMERIS_TYPE": 0, "CLASSIFICATION_TYPE": "U", "NORAD_CAT_ID": 30846, "ELEMENT_SET_NO": 999, "REV_AT_EPOCH": 98070, "BSTAR": 0.00068476604, "MEAN_MOTION_DOT": 2.214e-05, "MEAN_MOTION_DDOT": 0}, "tle": {"line1": "1 30846U 99025AWG 25356.47480481  .00002214  00000+0  68477-3 0  9996", "line2": "2 30846  99.3213 170.5675 0053901 307.8249 107.3804 14.41588330980706"}}, "geometry": {"type": "Point", "coordinates": [-24.92377192085338, -60.09049810600296]}}, {"type": "Feature", "properties": {"norad_id": 30847, "name": "FENGYUN 1C DEB", "group": "fengyun-1c-debris", "lat": 80.78032631459827, "lon": 86.21019392206512, "alt_km": 868.641024475799, "timestamp": "2025-12-23T11:34:48.442331+00:00", "meta": {"OBJECT_NAME": "FENGYUN 1C DEB", "OBJECT_ID": "1999-025AWH", "EPOCH": "2025-12-21T22:37:45.250176", "MEAN_MOTION": 14.17084709, "ECCENTRICITY": 0.00656938, "INCLINATION": 98.7319, "RA_OF_ASC_NODE": 155.9331, "ARG_OF_PERICENTER": 301.6261, "MEAN_ANOMALY": 215.0452, "EPHEMERIS_TYPE": 0, "CLASSIFICATION_TYPE": "U", "NORAD_CAT_ID": 30847, "ELEMENT_SET_NO": 999, "REV_AT_EPOCH": 96185, "BSTAR": 0.0017369238, "MEAN_MOTION_DOT": 3.528e-05, "MEAN_MOTION_DDOT": 0}, "tle": {"line1": "1 30847U 99025AWH 25355.94288484  .00003528  00000+0  17369-2 0  9999", "line2": "2 30847  98.7319 155.9331 0065693 301.6261 215.0452 14.17084709961855"}}, "geometry": {"type": "Point", "coordinates": [86.21019392206512, 80.78032631459827]}}, {"type": "Feature", "properties": {"norad_id": 30848, "name": "FENGYUN 1C DEB", "group": "fengyun-1c-debris", "lat": 37.750005809778315, "lon": 19.928561342364635, "alt_km": 803.4964256203793, "timestamp": "2025-12-23T11:34:48.442340+00:00", "meta": {"OBJECT_NAME": "FENGYUN 1C DEB", "OBJECT_ID": "1999-025AWJ", "EPOCH": "2025-12-21T12:02:56.456448", "MEAN_MOTION": 14.3453459, "ECCENTRICITY": 0.00434643, "INCLINATION": 99.057, "RA_OF_ASC_NODE": 190.7595, "ARG_OF_PERICENTER": 310.3453, "MEAN_ANOMALY": 49.3938, "EPHEMERIS_TYPE": 0, "CLASSIFICATION_TYPE": "U", "NORAD_CAT_ID": 30848, "ELEMENT_SET_NO": 999, "REV_AT_EPOCH": 97432, "BSTAR": 0.00089668848, "MEAN_MOTION_DOT": 2.509e-05, "MEAN_MOTION_DDOT": 0}, "tle": {"line1": "1 30848U 99025AWJ 25355.50204232  .00002509  00000+0  89669-3 0  9992", "line2": "2 30848  99.0570 190.7595 0043464 310.3453  49.3938 14.34534590974320"}}, "geometry": {"type": "Point", "coordinates": [19.928561342364635, 37.750005809778315]}}, {"type": "Feature", "properties": {"norad_id": 30849, "name": "FENGYUN 1C DEB", "group": "fengyun-1c-debris", "lat": -49.29950540031742, "lon": 68.37593048756493, "alt_km": 804.58619037668, "timestamp": "2025-12-23T11:34:48.442350+00:00", "meta": {"OBJECT_NAME": "FENGYUN 1C DEB", "OBJECT_ID": "1999-025AWK", "EPOCH": "2025-12-19T15:27:12.731040", "MEAN_MOTION": 14.18892004, "ECCENTRICITY": 0.0047911, "INCLINATION": 99.0479, "RA_OF_ASC_NODE": 53.7843, "ARG_OF_PERICENTER": 346.0232, "MEAN_ANOMALY": 167.3066, "EPHEMERIS_TYPE": 0, "CLASSIFICATION_TYPE": "U", "NORAD_CAT_ID": 30849, "ELEMENT_SET_NO": 999, "REV_AT_EPOCH": 96470, "BSTAR": 0.00099381, "MEAN_MOTION_DOT": 2.047e-05, "MEAN_MOTION_DDOT": 0}, "tle": {"line1": "1 30849U 99025AWK 25353.64389735  .00002047  00000+0  99381-3 0  9997", "line2": "2 30849  99.0479  53.7843 0047911 346.0232 167.3066 14.18892004964708"}}, "geometry": {"type": "Point", "coordinates": [68.37593048756493, -49.29950540031742]}}, {"type": "Feature", "properties": {"norad_id": 30850, "name": "FENGYUN 1C DEB", "group": "fengyun-1c-debris", "lat": 38.70556024956861, "lon": 49.17194767093665, "alt_km": 763.6564109104875, "timestamp": "2025-12-23T11:34:48.442359+00:00", "meta": {"OBJECT_NAME": "FENGYUN 1C DEB", "OBJECT_ID": "1999-025AWL", "EPOCH": "2025-12-20T13:41:26.416032", "MEAN_MOTION": 14.16338705, "ECCENTRICITY": 0.0109159, "INCLINATION": 98.3943, "RA_OF_ASC_NODE": 219.6301, "ARG_OF_PERICENTER": 174.889, "MEAN_ANOMALY": 246.6179, "EPHEMERIS_TYPE": 0, "CLASSIFICATION_TYPE": "U", "NORAD_CAT_ID": 30850, "ELEMENT_SET_NO": 999, "REV_AT_EPOCH": 95909, "BSTAR": 0.0013597, "MEAN_MOTION_DOT": 2.821e-05, "MEAN_MOTION_DDOT": 0}, "tle": {"line1": "1 30850U 99025AWL 25354.57044463  .00002821  00000+0  13597-2 0  9992", "line2": "2 30850  98.3943 219.6301 0109159 174.8890 246.6179 14.16338705959093"}}, "geometry": {"type": "Point", "coordinates": [49.17194767093665, 38.70556024956861]}}, {"type": "Feature", "properties": {"norad_id": 30852, "name": "FENGYUN 1C DEB", "group": "fengyun-1c-debris", "lat": -71.74695124878316, "lon": 167.14535849841977, "alt_km": 839.3283932984432, "timestamp": "2025-12-23T11:34:48.442368+00:00", "meta": {"OBJECT_NAME": "FENGYUN 1C DEB", "OBJECT_ID": "1999-025AWN", "EPOCH": "2025-12-22T12:14:44.081952", "MEAN_MOTION": 14.10300356, "ECCENTRICITY": 0.00562253, "INCLINATION": 98.7331, "RA_OF_ASC_NODE": 13.9798, "ARG_OF_PERICENTER": 206.6061, "MEAN_ANOMALY": 153.2222, "EPHEMERIS_TYPE": 0, "CLASSIFICATION_TYPE": "U", "NORAD_CAT_ID": 30852, "ELEMENT_SET_NO": 999, "REV_AT_EPOCH": 96520, "BSTAR": 0.00037024932, "MEAN_MOTION_DOT": 6.24e-06, "MEAN_MOTION_DDOT": 0}, "tle": {"line1": "1 30852U 99025AWN 25356.51023243  .00000624  00000+0  37025-3 0  9995", "line2": "2 30852  98.7331  13.9798 0056225 206.6061 153.2222 14.10300356965201"}}, "geometry": {"type": "Point", "coordinates": [167.14535849841977, -71.74695124878316]}}, {"type": "Feature", "properties": {"norad_id": 30856, "name": "FENGYUN 1C DEB", "group": "fengyun-1c-debris", "lat": -2.2697429885887876, "lon": -177.74745688393335, "alt_km": 795.0275138839761, "timestamp": "2025-12-23T11:34:48.442377+00:00", "meta": {"OBJECT_NAME": "FENGYUN 1C DEB", "OBJECT_ID": "1999-025AWS", "EPOCH": "2025-12-21T11:34:52.904064", "MEAN_MOTION": 14.46448005, "ECCENTRICITY": 0.00874686, "INCLINATION": 98.1981, "RA_OF_ASC_NODE": 179.9901, "ARG_OF_PERICENTER": 212.175, "MEAN_ANOMALY": 176.916, "EPHEMERIS_TYPE": 0, "CLASSIFICATION_TYPE": "U", "NORAD_CAT_ID": 30856, "ELEMENT_SET_NO": 999, "REV_AT_EPOCH": 96652, "BSTAR": 0.0037627232, "MEAN_MOTION_DOT": 0.00014168, "MEAN_MOTION_DDOT": 0}, "tle": {"line1": "1 30856U 99025AWS 25355.48255676  .00014168  00000+0  37627-2 0  9996", "line2": "2 30856  98.1981 179.9901 0087468 212.1750 176.9160 14.46448005966521"}}, "geometry": {"type": "Point", "coordinates": [-177.74745688393335, -2.2697429885887876]}}, {"type": "Feature", "properties": {"norad_id": 30857, "name": "FENGYUN 1C DEB", "group": "fengyun-1c-debris", "lat": 42.085379098776144, "lon": -20.23422785237165, "alt_km": 737.6645247232254, "timestamp": "2025-12-23T11:34:48.442386+00:00", "meta": {"OBJECT_NAME": "FENGYUN 1C DEB", "OBJECT_ID": "1999-025AWT", "EPOCH": "2025-12-10T22:20:28.597056", "MEAN_MOTION": 14.51403304, "ECCENTRICITY": 0.0041899, "INCLINATION": 98.9745, "RA_OF_ASC_NODE": 334.5727, "ARG_OF_PERICENTER": 300.5616, "MEAN_ANOMALY": 59.1445, "EPHEMERIS_TYPE": 0, "CLASSIFICATION_TYPE": "U", "NORAD_CAT_ID": 30857, "ELEMENT_SET_NO": 999, "REV_AT_EPOCH": 96697, "BSTAR": 0.0076916, "MEAN_MOTION_DOT": 0.0003112, "MEAN_MOTION_DDOT": 0}, "tle": {"line1": "1 30857U 99025AWT 25344.93088654  .00031120  00000+0  76916-2 0  9996", "line2": "2 30857  98.9745 334.5727 0041899 300.5616  59.1445 14.51403304966970"}}, "geometry": {"type": "Point", "coordinates": [-20.23422785237165, 42.085379098776144]}}, {"type": "Feature", "properties": {"norad_id": 30858, "name": "FENGYUN 1C DEB", "group": "fengyun-1c-debris", "lat": 11.820000199391872, "lon": -123.1300221590725, "alt_km": 833.2138631589178, "timestamp": "2025-12-23T11:34:48.442395+00:00", "meta": {"OBJECT_NAME": "FENGYUN 1C DEB", "OBJECT_ID": "1999-025AWU", "EPOCH": "2025-12-22T19:53:18.255264", "MEAN_MOTION": 14.17795846, "ECCENTRICITY": 0.00305807, "INCLINATION": 98.7978, "RA_OF_ASC_NODE": 54.3652, "ARG_OF_PERICENTER": 81.8242, "MEAN_ANOMALY": 350.4727, "EPHEMERIS_TYPE": 0, "CLASSIFICATION_TYPE": "U", "NORAD_CAT_ID": 30858, "ELEMENT_SET_NO": 999, "REV_AT_EPOCH": 97123, "BSTAR": 0.00032887277, "MEAN_MOTION_DOT": 6.3e-06, "MEAN_MOTION_DDOT": 0}, "tle": {"line1": "1 30858U 99025AWU 25356.82868351  .00000630  00000+0  32887-3 0  9990", "line2": "2 30858  98.7978  54.3652 0030580  81.8242 350.4727 14.17795846971232"}}, "geometry": {"type": "Point", "coordinates": [-123.1300221590725, 11.820000199391872]}}, {"type": "Feature", "properties": {"norad_id": 30859, "name": "FENGYUN 1C DEB", "group": "fengyun-1c-debris", "lat": 17.44765878039472, "lon": 45.385675840019466, "alt_km": 708.0789075447619, "timestamp": "2025-12-23T11:34:48.442403+00:00", "meta": {"OBJECT_NAME": "FENGYUN 1C DEB", "OBJECT_ID": "1999-025AWV", "EPOCH": "2025-12-22T18:55:46.682400", "MEAN_MOTION": 14.49249184, "ECCENTRICITY": 0.00306758, "INCLINATION": 98.9206, "RA_OF_ASC_NODE": 47.4821, "ARG_OF_PERICENTER": 359.1731, "MEAN_ANOMALY": 0.9405, "EPHEMERIS_TYPE": 0, "CLASSIFICATION_TYPE": "U", "NORAD_CAT_ID": 30859, "ELEMENT_SET_NO": 999, "REV_AT_EPOCH": 97180, "BSTAR": 0.0026736272, "MEAN_MOTION_DOT": 0.00010217, "MEAN_MOTION_DDOT": 0}, "tle": {"line1": "1 30859U 99025AWV 25356.78873475  .00010217  00000+0  26736-2 0  9996", "line2": "2 30859  98.9206  47.4821 0030675 359.1731   0.9405 14.49249184971806"}}, "geometry": {"type": "Point", "coordinates": [45.385675840019466, 17.44765878039472]}}]}